ONEWEB-0233             
1 48795U 21045AE  23059.26098205 -.00000028  00000+0 -10730-3 0  9991
2 48795  87.9115 139.1748 0001682 117.7177 242.4124 13.15550942 85868
ONEWEB-0233             
1 48795U 21045AE  23059.94549660 -.00000127  00000+0 -37172-3 0  9991
2 48795  87.9112 139.0392 0001680 116.1900 243.9403 13.15551057 87073
ONEWEB-0233             
1 48795U 21045AE  23060.24972467 -.00000095  00000+0 -28711-3 0  9994
2 48795  87.9111 138.9790 0001787 122.0611 238.0693 13.15551398 85998
ONEWEB-0233             
1 48795U 21045AE  23061.16241114 -.00000031  00000+0 -11602-3 0  9995
2 48795  87.9114 138.7981 0001733 117.9943 242.1362 13.15550948 87231
ONEWEB-0233             
1 48795U 21045AE  23061.61875475 -.00000117  00000+0 -34575-3 0  9997
2 48795  87.9111 138.7071 0001759 118.1460 241.9848 13.15550907 86176
ONEWEB-0233             
1 48795U 21045AE  23062.22721187 -.00000042  00000+0 -14522-3 0  9992
2 48795  87.9111 138.5868 0001776 117.6725 242.4585 13.15551605 86254
ONEWEB-0233             
1 48795U 21045AE  23062.22721187 -.00000042  00000+0 -14522-3 0  9992
2 48795  87.9111 138.5868 0001776 117.6725 242.4585 13.15551605 87378
